start=new Date('2022-05-20T00:00:00.000Z').valueOf();
sats=[{"MEAN_MOTION_DDOT":"0.0000000000000","COUNTRY_CODE":"US","OBJECT_TYPE":"PAYLOAD","LAUNCH_DATE":"2021-03-14","APOAPSIS":"548.772","EPOCH":"2022-05-19T10:12:27.502848","INCLINATION":"53.0561","FILE":"3453601","MEAN_MOTION":"15.06385017","SEMIMAJOR_AXIS":"6925.394","MEAN_ELEMENT_THEORY":"SGP4","ECCENTRICITY":"0.00021840","GP_ID":"203960969","TIME_SYSTEM":"UTC","CENTER_NAME":"EARTH","RCS_SIZE":"LARGE","ELEMENT_SET_NO":"999","PERIOD":"95.593","MEAN_ANOMALY":"314.7150","MEAN_MOTION_DOT":"0.00002319","TLE_LINE1":"1 47888U 21021AE  22139.42531832  .00002319  00000-0  17458-3 0  9999","TLE_LINE2":"2 47888  53.0561  32.7657 0002184  45.4017 314.7150 15.06385017 66170","NORAD_CAT_ID":"47888","SITE":"AFETR","OBJECT_ID":"2021-021AE","EPHEMERIS_TYPE":"0","RA_OF_ASC_NODE":"32.7657","DECAY_DATE":null,"PERIAPSIS":"545.747","CLASSIFICATION_TYPE":"U","REF_FRAME":"TEME","BSTAR":"0.00017458000000","ARG_OF_PERICENTER":"45.4017","REV_AT_EPOCH":"6617","OBJECT_NAME":"STARLINK-2348"},{"REV_AT_EPOCH":"6670","OBJECT_NAME":"STARLINK-2349","ARG_OF_PERICENTER":"55.8434","BSTAR":"0.00034399000000","CLASSIFICATION_TYPE":"U","PERIAPSIS":"545.973","REF_FRAME":"TEME","RA_OF_ASC_NODE":"32.7134","DECAY_DATE":null,"EPHEMERIS_TYPE":"0","TLE_LINE1":"1 47889U 21021AF  22139.43637510  .00004846  00000-0  34399-3 0  9991","TLE_LINE2":"2 47889  53.0556  32.7134 0001775  55.8434 304.2723 15.06403841 66703","SITE":"AFETR","NORAD_CAT_ID":"47889","OBJECT_ID":"2021-021AF","MEAN_MOTION_DOT":"0.00004846","PERIOD":"95.592","MEAN_ANOMALY":"304.2723","RCS_SIZE":"LARGE","ELEMENT_SET_NO":"999","TIME_SYSTEM":"UTC","CENTER_NAME":"EARTH","ECCENTRICITY":"0.00017750","GP_ID":"203944706","INCLINATION":"53.0556","EPOCH":"2022-05-19T10:28:22.808640","FILE":"3453038","MEAN_MOTION":"15.06403841","SEMIMAJOR_AXIS":"6925.337","MEAN_ELEMENT_THEORY":"SGP4","APOAPSIS":"548.431","LAUNCH_DATE":"2021-03-14","COUNTRY_CODE":"US","OBJECT_TYPE":"PAYLOAD","MEAN_MOTION_DDOT":"0.0000000000000"},{"CLASSIFICATION_TYPE":"U","PERIAPSIS":"438.553","REF_FRAME":"TEME","RA_OF_ASC_NODE":"349.3972","DECAY_DATE":null,"REV_AT_EPOCH":"6683","OBJECT_NAME":"STARLINK-2350","BSTAR":"0.00035885000000","ARG_OF_PERICENTER":"41.5916","MEAN_MOTION_DOT":"0.00015245","PERIOD":"93.375","MEAN_ANOMALY":"318.5215","EPHEMERIS_TYPE":"0","TLE_LINE1":"1 47890U 21021AG  22139.97363413  .00015245  00000-0  35885-3 0  9996","TLE_LINE2":"2 47890  53.0545 349.3972 0001667  41.5916 318.5215 15.42176459 66837","SITE":"AFETR","NORAD_CAT_ID":"47890","OBJECT_ID":"2021-021AG","ECCENTRICITY":"0.00016670","GP_ID":"203991238","EPOCH":"2022-05-19T23:22:01.988832","INCLINATION":"53.0545","FILE":"3453832","MEAN_MOTION":"15.42176459","SEMIMAJOR_AXIS":"6817.824","MEAN_ELEMENT_THEORY":"SGP4","RCS_SIZE":"LARGE","ELEMENT_SET_NO":"999","TIME_SYSTEM":"UTC","CENTER_NAME":"EARTH","COUNTRY_CODE":"US","OBJECT_TYPE":"PAYLOAD","MEAN_MOTION_DDOT":"0.0000000000000","LAUNCH_DATE":"2021-03-14","APOAPSIS":"440.826"},{"OBJECT_TYPE":"PAYLOAD","COUNTRY_CODE":"US","MEAN_MOTION_DDOT":"0.0000000000000","LAUNCH_DATE":"2021-03-14","APOAPSIS":"548.322","GP_ID":"203993064","ECCENTRICITY":"0.00016230","MEAN_ELEMENT_THEORY":"SGP4","SEMIMAJOR_AXIS":"6925.333","MEAN_MOTION":"15.06405148","FILE":"3453924","INCLINATION":"53.0556","EPOCH":"2022-05-20T02:33:03.143232","ELEMENT_SET_NO":"999","RCS_SIZE":"LARGE","CENTER_NAME":"EARTH","TIME_SYSTEM":"UTC","MEAN_MOTION_DOT":"-0.00008069","MEAN_ANOMALY":"288.8791","PERIOD":"95.592","EPHEMERIS_TYPE":"0","OBJECT_ID":"2021-021AH","NORAD_CAT_ID":"47891","SITE":"AFETR","TLE_LINE1":"1 47891U 21021AH  22140.10628638 -.00008069  00000-0 -52335-3 0  9994","TLE_LINE2":"2 47891  53.0556  39.7045 0001623  71.2374 288.8791 15.06405148 66132","REF_FRAME":"TEME","PERIAPSIS":"546.074","CLASSIFICATION_TYPE":"U","DECAY_DATE":null,"RA_OF_ASC_NODE":"39.7045","OBJECT_NAME":"STARLINK-2351","REV_AT_EPOCH":"6613","ARG_OF_PERICENTER":"71.2374","BSTAR":"-0.00052335000000"},{"MEAN_MOTION_DOT":"0.00001353","MEAN_ANOMALY":"305.3169","PERIOD":"94.930","EPHEMERIS_TYPE":"0","OBJECT_ID":"2021-021AJ","SITE":"AFETR","NORAD_CAT_ID":"47892","TLE_LINE2":"2 47892  53.0566  33.5363 0001909  54.8003 305.3169 15.16904990 66215","TLE_LINE1":"1 47892U 21021AJ  22140.04068006  .00001353  00000-0  83472-4 0  9999","REF_FRAME":"TEME","PERIAPSIS":"513.887","CLASSIFICATION_TYPE":"U","DECAY_DATE":null,"RA_OF_ASC_NODE":"33.5363","OBJECT_NAME":"STARLINK-2352","REV_AT_EPOCH":"6621","ARG_OF_PERICENTER":"54.8003","BSTAR":"0.00008347200000","OBJECT_TYPE":"PAYLOAD","COUNTRY_CODE":"US","MEAN_MOTION_DDOT":"0.0000000000000","APOAPSIS":"516.519","LAUNCH_DATE":"2021-03-14","GP_ID":"203991470","ECCENTRICITY":"0.00019090","SEMIMAJOR_AXIS":"6893.338","MEAN_ELEMENT_THEORY":"SGP4","MEAN_MOTION":"15.16904990","FILE":"3453832","EPOCH":"2022-05-20T00:58:34.757184","INCLINATION":"53.0566","ELEMENT_SET_NO":"999","RCS_SIZE":"LARGE","CENTER_NAME":"EARTH","TIME_SYSTEM":"UTC"},{"CENTER_NAME":"EARTH","TIME_SYSTEM":"UTC","RCS_SIZE":"LARGE","ELEMENT_SET_NO":"999","FILE":"3453832","INCLINATION":"53.0555","EPOCH":"2022-05-20T01:30:41.217984","SEMIMAJOR_AXIS":"6925.329","MEAN_ELEMENT_THEORY":"SGP4","MEAN_MOTION":"15.06406526","GP_ID":"203991230","ECCENTRICITY":"0.00016520","LAUNCH_DATE":"2021-03-14","APOAPSIS":"548.338","MEAN_MOTION_DDOT":"0.0000000000000","COUNTRY_CODE":"US","OBJECT_TYPE":"PAYLOAD","ARG_OF_PERICENTER":"52.0016","BSTAR":"0.00016540000000","REV_AT_EPOCH":"6626","OBJECT_NAME":"STARLINK-2354","RA_OF_ASC_NODE":"29.9013","DECAY_DATE":null,"REF_FRAME":"TEME","CLASSIFICATION_TYPE":"U","PERIAPSIS":"546.049","SITE":"AFETR","NORAD_CAT_ID":"47894","TLE_LINE1":"1 47894U 21021AL  22140.06297706  .00002183  00000-0  16540-3 0  9997","TLE_LINE2":"2 47894  53.0555  29.9013 0001652  52.0016 308.1122 15.06406526 66261","OBJECT_ID":"2021-021AL","EPHEMERIS_TYPE":"0","PERIOD":"95.592","MEAN_ANOMALY":"308.1122","MEAN_MOTION_DOT":"0.00002183"},{"RCS_SIZE":"LARGE","ELEMENT_SET_NO":"999","CENTER_NAME":"EARTH","TIME_SYSTEM":"UTC","GP_ID":"203991231","ECCENTRICITY":"0.00018170","FILE":"3453832","EPOCH":"2022-05-20T01:46:37.902720","INCLINATION":"53.0570","MEAN_ELEMENT_THEORY":"SGP4","SEMIMAJOR_AXIS":"6925.382","MEAN_MOTION":"15.06389029","LAUNCH_DATE":"2021-03-14","APOAPSIS":"548.506","COUNTRY_CODE":"US","OBJECT_TYPE":"PAYLOAD","MEAN_MOTION_DDOT":"0.0000000000000","REV_AT_EPOCH":"6626","OBJECT_NAME":"STARLINK-2355","BSTAR":"0.00022351000000","ARG_OF_PERICENTER":"67.6067","REF_FRAME":"TEME","PERIAPSIS":"545.989","CLASSIFICATION_TYPE":"U","RA_OF_ASC_NODE":"29.8590","DECAY_DATE":null,"EPHEMERIS_TYPE":"0","NORAD_CAT_ID":"47895","SITE":"AFETR","TLE_LINE1":"1 47895U 21021AM  22140.07404980  .00003048  00000-0  22351-3 0  9991","TLE_LINE2":"2 47895  53.0570  29.8590 0001817  67.6067 292.5115 15.06389029 66265","OBJECT_ID":"2021-021AM","MEAN_MOTION_DOT":"0.00003048","PERIOD":"95.593","MEAN_ANOMALY":"292.5115"},{"MEAN_ANOMALY":"304.6591","PERIOD":"95.592","MEAN_MOTION_DOT":"0.00000046","OBJECT_ID":"2021-021AN","NORAD_CAT_ID":"47896","SITE":"AFETR","TLE_LINE1":"1 47896U 21021AN  22140.00077804  .00000046  00000-0  21985-4 0  9994","TLE_LINE2":"2 47896  53.0550  45.1866 0001629  55.4552 304.6591 15.06396928 66041","EPHEMERIS_TYPE":"0","DECAY_DATE":null,"RA_OF_ASC_NODE":"45.1866","REF_FRAME":"TEME","CLASSIFICATION_TYPE":"U","PERIAPSIS":"546.095","BSTAR":"0.00002198500000","ARG_OF_PERICENTER":"55.4552","OBJECT_NAME":"STARLINK-2356","REV_AT_EPOCH":"6604","MEAN_MOTION_DDOT":"0.0000000000000","OBJECT_TYPE":"PAYLOAD","COUNTRY_CODE":"US","LAUNCH_DATE":"2021-03-14","APOAPSIS":"548.351","MEAN_ELEMENT_THEORY":"SGP4","SEMIMAJOR_AXIS":"6925.358","MEAN_MOTION":"15.06396928","FILE":"3453909","INCLINATION":"53.0550","EPOCH":"2022-05-20T00:01:07.222656","GP_ID":"203993541","ECCENTRICITY":"0.00016290","CENTER_NAME":"EARTH","TIME_SYSTEM":"UTC","ELEMENT_SET_NO":"999","RCS_SIZE":"LARGE"},{"MEAN_MOTION_DDOT":"0.0000000000000","COUNTRY_CODE":"US","OBJECT_TYPE":"PAYLOAD","LAUNCH_DATE":"2021-03-14","APOAPSIS":"548.415","INCLINATION":"53.0545","EPOCH":"2022-05-19T09:49:51.582720","FILE":"3453080","MEAN_MOTION":"15.06400113","SEMIMAJOR_AXIS":"6925.348","MEAN_ELEMENT_THEORY":"SGP4","ECCENTRICITY":"0.00017350","GP_ID":"203948203","TIME_SYSTEM":"UTC","CENTER_NAME":"EARTH","RCS_SIZE":"LARGE","ELEMENT_SET_NO":"999","PERIOD":"95.592","MEAN_ANOMALY":"301.1890","MEAN_MOTION_DOT":"-0.00000656","TLE_LINE2":"2 47897  53.0545  32.8157 0001735  58.9269 301.1890 15.06400113 66162","TLE_LINE1":"1 47897U 21021AP  22139.40962480 -.00000656  00000-0 -25110-4 0  9993","SITE":"AFETR","NORAD_CAT_ID":"47897","OBJECT_ID":"2021-021AP","EPHEMERIS_TYPE":"0","RA_OF_ASC_NODE":"32.8157","DECAY_DATE":null,"CLASSIFICATION_TYPE":"U","PERIAPSIS":"546.012","REF_FRAME":"TEME","BSTAR":"-0.00002511000000","ARG_OF_PERICENTER":"58.9269","REV_AT_EPOCH":"6616","OBJECT_NAME":"STARLINK-2357"},{"REF_FRAME":"TEME","PERIAPSIS":"546.149","CLASSIFICATION_TYPE":"U","DECAY_DATE":null,"RA_OF_ASC_NODE":"30.1911","OBJECT_NAME":"STARLINK-2358","REV_AT_EPOCH":"6625","BSTAR":"0.00039672000000","ARG_OF_PERICENTER":"87.7798","MEAN_MOTION_DOT":"0.00005630","MEAN_ANOMALY":"272.3375","PERIOD":"95.593","EPHEMERIS_TYPE":"0","OBJECT_ID":"2021-021AQ","NORAD_CAT_ID":"47898","SITE":"AFETR","TLE_LINE1":"1 47898U 21021AQ  22140.00031694  .00005630  00000-0  39672-3 0  9998","TLE_LINE2":"2 47898  53.0562  30.1911 0001607  87.7798 272.3375 15.06384384 66254","GP_ID":"203991246","ECCENTRICITY":"0.00016070","MEAN_ELEMENT_THEORY":"SGP4","SEMIMAJOR_AXIS":"6925.396","MEAN_MOTION":"15.06384384","FILE":"3453833","EPOCH":"2022-05-20T00:00:27.383616","INCLINATION":"53.0562","ELEMENT_SET_NO":"999","RCS_SIZE":"LARGE","CENTER_NAME":"EARTH","TIME_SYSTEM":"UTC","OBJECT_TYPE":"PAYLOAD","COUNTRY_CODE":"US","MEAN_MOTION_DDOT":"0.0000000000000","LAUNCH_DATE":"2021-03-14","APOAPSIS":"548.374"}];
